COMMENT,ORIGINATOR,NORAD_CAT_ID,OBJECT_NAME,OBJECT_TYPE,CLASSIFICATION_TYPE,INTLDES,EPOCH,EPOCH_MICROSECONDS,MEAN_MOTION,ECCENTRICITY,INCLINATION,RA_OF_ASC_NODE,ARG_OF_PERICENTER,MEAN_ANOMALY,EPHEMERIS_TYPE,ELEMENT_SET_NO,REV_AT_EPOCH,BSTAR,MEAN_MOTION_DOT,MEAN_MOTION_DDOT,FILE,TLE_LINE0,TLE_LINE1,TLE_LINE2,OBJECT_ID,OBJECT_NUMBER,SEMIMAJOR_AXIS,PERIOD,APOGEE,PERIGEE,DECAYED
GENERATED VIA SPACETRACK.ORG API,18 SPCS,8832,TITAN 3C TRANSTAGE DEB,DEBRIS,U,76023J,2024-03-14 02:23:00,198240,0.98260932,0.013768,20.1245,53.1435,73.6585,98.3575,0,999,10949,0,-0.00000171,0,4225152,0 TITAN 3C TRANSTAGE DEB,1 08832U 76023J   24074.09930785 -.00000171  00000-0  00000-0 0  9997,2 08832  20.1245  53.1435 0137680  73.6585  98.3575  0.98260932109496,1976-023J,8832,42738.039,1465.486,36948.321,35771.486,0
GENERATED VIA SPACETRACK.ORG API,18 SPCS,43454,TITAN 3C TRANSTAGE DEB,DEBRIS,U,69013M,2024-03-14 02:17:19,706208,1.02845239,0.0561336,1.4491,246.2963,213.0665,142.3376,0,999,2214,0,-0.00000127,0,4224843,0 TITAN 3C TRANSTAGE DEB,1 43454U 69013M   24074.09536697 -.00000127  00000-0  00000+0 0  9991,2 43454   1.4491 246.2963 0561336 213.0665 142.3376  1.02845239 22149,1969-013M,43454,41458.385,1400.162,37407.458,32753.042,0
GENERATED VIA SPACETRACK.ORG API,18 SPCS,43454,TITAN 3C TRANSTAGE DEB,DEBRIS,U,69013M,2024-03-14 02:17:19,706208,1.02845239,0.0561336,1.4491,246.2963,213.0665,142.3376,0,999,2214,0,-0.00000127,0,4225152,0 TITAN 3C TRANSTAGE DEB,1 43454U 69013M   24074.09536697 -.00000127  00000-0  00000-0 0  9992,2 43454   1.4491 246.2963 0561336 213.0665 142.3376  1.02845239 22149,1969-013M,43454,41458.385,1400.162,37407.458,32753.042,0
GENERATED VIA SPACETRACK.ORG API,18 SPCS,41469,IRNSS 1G,PAYLOAD,U,16027A,2024-03-14 00:42:42,808032,1.00271848,0.0005219,3.2279,122.741,297.1891,252.4117,0,999,2889,0,-0.00000344,0,4224309,0 IRNSS 1G,1 41469U 16027A   24074.02966213 -.00000344  00000-0  00000+0 0  9997,2 41469   3.2279 122.7410 0005219 297.1891 252.4117  1.00271848 28890,2016-027A,41469,42164.714,1436.096,35808.585,35764.574,0
GENERATED VIA SPACETRACK.ORG API,18 SPCS,22787,UFO 2 (USA 95),PAYLOAD,U,93056A,2024-03-14 00:16:42,755808,1.00274035,0.0004411,11.6301,7.8522,4.9275,192.15,0,999,11038,0,0.00000117,0,4224092,0 UFO 2 (USA 95),1 22787U 93056A   24074.01160597  .00000117  00000-0  00000+0 0  9993,2 22787  11.6301   7.8522 0004411   4.9275 192.1500  1.00274035110384,1993-056A,22787,42164.101,1436.065,35804.565,35767.368,0
GENERATED VIA SPACETRACK.ORG API,18 SPCS,29055,ASTRA 1KR,PAYLOAD,U,06012A,2024-03-13 23:33:42,729984,1.00271552,0.0002484,0.0558,284.4378,32.5279,227.6972,0,999,6547,0,0.0000011,0,4225353,0 ASTRA 1KR,1 29055U 06012A   24073.98174456  .00000110  00000-0  00000+0 0  9991,2 29055   0.0558 284.4378 0002484  32.5279 227.6972  1.00271552 65473,2006-012A,29055,42164.797,1436.100,35797.136,35776.189,0
GENERATED VIA SPACETRACK.ORG API,18 SPCS,44066,S5 DEB,DEBRIS,U,19009E,2024-03-13 22:43:39,112608,0.98984424,0.0004814,4.4618,80.6418,201.4576,158.7955,0,999,1819,0,-0.00000116,0,4225152,0 S5 DEB,1 44066U 19009E   24073.94698047 -.00000116  00000-0  00000-0 0  9991,2 44066   4.4618  80.6418 0004814 201.4576 158.7955  0.98984424 18191,2019-009E,44066,42529.532,1454.774,36171.870,36130.923,0
GENERATED VIA SPACETRACK.ORG API,18 SPCS,44066,S5 DEB,DEBRIS,U,19009E,2024-03-13 22:43:39,486720,0.98984367,0.0004774,4.4618,80.6414,201.61,158.6431,0,999,1819,0,-0.00000116,0,4225645,0 S5 DEB,1 44066U 19009E   24073.94698480 -.00000116  00000-0  00000-0 0  9992,2 44066   4.4618  80.6414 0004774 201.6100 158.6431  0.98984367 18191,2019-009E,44066,42529.548,1454.775,36171.717,36131.109,0
GENERATED VIA SPACETRACK.ORG API,18 SPCS,43453,TITAN 3C TRANSTAGE DEB,DEBRIS,U,69013L,2024-03-13 21:58:12,781344,1.0740228,0.0717149,1.7271,232.3095,213.0786,141.507,0,999,2317,0,-0.00000198,0,4224762,0 TITAN 3C TRANSTAGE DEB,1 43453U 69013L   24073.91542571 -.00000198  00000-0  00000+0 0  9996,2 43453   1.7271 232.3095 0717149 213.0786 141.5070  1.07402280 23174,1969-013L,43453,40277.222,1340.754,36787.564,31010.610,0
GENERATED VIA SPACETRACK.ORG API,18 SPCS,43453,TITAN 3C TRANSTAGE DEB,DEBRIS,U,69013L,2024-03-13 21:58:05,591136,1.07401828,0.0718475,1.7267,232.2916,213.0839,141.4921,0,999,2317,0,-0.00000198,0,4225366,0 TITAN 3C TRANSTAGE DEB,1 43453U 69013L   24073.91534249 -.00000198  00000-0  00000+0 0  9999,2 43453   1.7267 232.2916 0718475 213.0839 141.4921  1.07401828 23173,1969-013L,43453,40277.335,1340.759,36793.026,31005.374,0
GENERATED VIA SPACETRACK.ORG API,18 SPCS,44457,COSMOS 2539,PAYLOAD,U,19048A,2024-03-13 21:47:42,908928,1.00268619,0.000094,0.0157,128.354,207.0615,175.5105,0,999,1695,0,0.0000007,0,4223970,0 COSMOS 2539,1 44457U 19048A   24073.90813552  .00000070  00000-0  00000-0 0  9992,2 44457   0.0157 128.3540 0000940 207.0615 175.5105  1.00268619 16954,2019-048A,44457,42165.620,1436.142,35791.448,35783.521,0
GENERATED VIA SPACETRACK.ORG API,18 SPCS,41469,IRNSS 1G,PAYLOAD,U,16027A,2024-03-13 21:45:19,762272,1.00271908,0.0005218,3.2276,122.7465,297.1157,208.0119,0,999,2890,0,-0.00000344,0,4223970,0 IRNSS 1G,1 41469U 16027A   24073.90647873 -.00000344  00000-0  00000-0 0  9992,2 41469   3.2276 122.7465 0005218 297.1157 208.0119  1.00271908 28909,2016-027A,41469,42164.697,1436.095,35808.564,35764.561,0
GENERATED VIA SPACETRACK.ORG API,18 SPCS,29055,ASTRA 1KR,PAYLOAD,U,06012A,2024-03-13 21:39:42,772032,1.00273231,0.0002751,0.0553,283.6056,14.4558,218.034,0,999,3744,0,0.0000011,0,4223970,0 ASTRA 1KR,1 29055U 06012A   24073.90257838  .00000110  00000-0  00000-0 0  9990,2 29055   0.0553 283.6056 0002751  14.4558 218.0340  1.00273231 37443,2006-012A,29055,42164.327,1436.076,35797.791,35774.592,0
GENERATED VIA SPACETRACK.ORG API,18 SPCS,42749,ECHOSTAR 21,PAYLOAD,U,17032A,2024-03-13 21:16:22,792224,1.00269838,0.0002435,2.7042,317.8455,22.6782,160.7951,0,999,2483,0,0.00000054,0,4223970,0 ECHOSTAR 21,1 42749U 17032A   24073.88637491  .00000054  00000-0  00000-0 0  9990,2 42749   2.7042 317.8455 0002435  22.6782 160.7951  1.00269838 24830,2017-032A,42749,42165.278,1436.125,35797.410,35776.876,0
GENERATED VIA SPACETRACK.ORG API,18 SPCS,42915,TDRS 13,PAYLOAD,U,17047A,2024-03-13 21:04:58,722816,1.00271621,0.0014115,3.7205,342.6638,106.1169,27.9119,0,999,2407,0,-0.0000011,0,4223970,0 TDRS 13,1 42915U 17047A   24073.87845744 -.00000110  00000-0  00000-0 0  9996,2 42915   3.7205 342.6638 0014115 106.1169  27.9119  1.00271621 24070,2017-047A,42915,42164.778,1436.099,35846.159,35727.127,0
GENERATED VIA SPACETRACK.ORG API,18 SPCS,33373,NIMIQ 4,PAYLOAD,U,08044A,2024-03-13 20:44:45,741120,1.00270843,0.0001619,0.0286,245.959,117.8803,37.2847,0,999,5670,0,-0.0000023,0,4223970,0 NIMIQ 4,1 33373U 08044A   24073.86441830 -.00000230  00000-0  00000-0 0  9991,2 33373   0.0286 245.9590 0001619 117.8803  37.2847  1.00270843 56700,2008-044A,33373,42164.996,1436.110,35793.688,35780.035,0
GENERATED VIA SPACETRACK.ORG API,18 SPCS,41937,SBIRS GEO 4 (USA 273),PAYLOAD,U,17004A,2024-03-13 20:40:30,103392,1.00271313,0.0002369,1.4503,350.6449,354.0068,40.6114,0,999,2633,0,-0.00000153,0,4223970,0 SBIRS GEO 4 (USA 273),1 41937U 17004A   24073.86145953 -.00000153  00000-0  00000-0 0  9993,2 41937   1.4503 350.6449 0002369 354.0068  40.6114  1.00271313 26334,2017-004A,41937,42164.864,1436.104,35796.718,35776.740,0
GENERATED VIA SPACETRACK.ORG API,18 SPCS,41384,IRNSS 1F,PAYLOAD,U,16015A,2024-03-13 20:26:42,716256,1.00270141,0.0019591,3.347,121.4671,190.5513,199.0596,0,999,2939,0,0.0000015,0,4223970,0 IRNSS 1F,1 41384U 16015A   24073.85188329  .00000150  00000-0  00000-0 0  9999,2 41384   3.3470 121.4671 0019591 190.5513 199.0596  1.00270141 29398,2016-015A,41384,42165.193,1436.120,35869.664,35704.452,0
GENERATED VIA SPACETRACK.ORG API,18 SPCS,25001,TITAN 3C TRANSTAGE DEB,DEBRIS,U,68081H,2024-03-13 20:03:39,588768,1.01692398,0.006954,1.0267,347.9305,39.2703,221.1469,0,999,10992,0,-0.00000084,0,4223757,0 TITAN 3C TRANSTAGE DEB,1 25001U 68081H   24073.83587487 -.00000084  00000-0  00000+0 0  9999,2 25001   1.0267 347.9305 0069540  39.2703 221.1469  1.01692398109920,1968-081H,25001,41771.126,1416.035,35683.467,35102.515,0
GENERATED VIA SPACETRACK.ORG API,18 SPCS,25001,TITAN 3C TRANSTAGE DEB,DEBRIS,U,68081H,2024-03-13 20:03:39,588768,1.01692398,0.006954,1.0267,347.9305,39.2703,221.1469,0,999,10992,0,-0.00000084,0,4223970,0 TITAN 3C TRANSTAGE DEB,1 25001U 68081H   24073.83587487 -.00000084  00000-0  00000-0 0  9990,2 25001   1.0267 347.9305 0069540  39.2703 221.1469  1.01692398109920,1968-081H,25001,41771.126,1416.035,35683.467,35102.515,0
GENERATED VIA SPACETRACK.ORG API,18 SPCS,41548,BREEZE-M DEB,DEBRIS,U,15075J,2024-03-13 19:24:59,921568,1.02192331,0.0361772,6.8107,63.8258,111.1647,252.8896,0,999,3040,0,-0.00000124,0,4224862,0 BREEZE-M DEB,1 41548U 15075J   24073.80902687 -.00000124  00000-0  00000+0 0  9993,2 41548   6.8107  63.8258 0361772 111.1647 252.8896  1.02192331 30404,2015-075J,41548,41634.783,1409.108,36762.878,33750.418,0
GENERATED VIA SPACETRACK.ORG API,18 SPCS,41548,BREEZE-M DEB,DEBRIS,U,15075J,2024-03-13 19:24:59,921568,1.02192331,0.0361772,6.8107,63.8258,111.1647,252.8896,0,999,3083,0,-0.00000124,0,4225152,0 BREEZE-M DEB,1 41548U 15075J   24073.80902687 -.00000124  00000-0  00000-0 0  9994,2 41548   6.8107  63.8258 0361772 111.1647 252.8896  1.02192331 30831,2015-075J,41548,41634.783,1409.108,36762.878,33750.418,0
GENERATED VIA SPACETRACK.ORG API,18 SPCS,43162,SBIRS GEO 3 (USA 282),PAYLOAD,U,18009A,2024-03-13 18:39:34,506144,1.00271656,0.0001862,2.4768,332.203,15.8622,304.2809,0,999,2256,0,0.00000118,0,4223970,0 SBIRS GEO 3 (USA 282),1 43162U 18009A   24073.77748271  .00000118  00000-0  00000-0 0  9993,2 43162   2.4768 332.2030 0001862  15.8622 304.2809  1.00271656 22568,2018-009A,43162,42164.768,1436.099,35794.484,35778.782,0
